CTC2_L_00519024-03
1 20836U 23007WT  26037.47797454  .00000000  00000+0  00000-0 0  9995
2 20836  97.4000 276.0000 0000000   0.0000 228.0000 15.18623352    15
CTC2_L_00519024-04
1 20837U 23090BZ  26037.47797454  .00000000  00000+0  00000-0 0  9998
2 20837  97.4000 276.0000 0000000   0.0000 273.0000 15.18623352    16
CTC2_L_00519024-05
1 20838U 23351YV  26037.47797454  .00000000  00000+0  00000-0 0  9999
2 20838  97.4000 276.0000 0000000   0.0000 318.0000 15.18623352    17
CTC2_L_00519024-06
1 20839U 24325CU  26037.47797454  .00000000  00000+0  00000-0 0  9992
2 20839  97.4000 276.0000 0000000   0.0000   3.0000 15.18623352    19
CTC2_L_00519024-07
1 20840U 22571IK  26037.47797454  .00000000  00000+0  00000-0 0  9995
2 20840  97.4000 276.0000 0000000   0.0000  48.0000 15.18623352    10
CTC2_L_00519024-08
1 20841U 26766CO  26037.47797454  .00000000  00000+0  00000-0 0  9996
2 20841  97.4000 276.0000 0000000   0.0000  93.0000 15.18623352    11
CTC2_L_00519025-01
1 20842U 25207DB  26037.47797454  .00000000  00000+0  00000-0 0  9996
2 20842  97.4000 288.0000 0000000   0.0000 144.0000 15.18623352    12
CTC2_L_00519025-02
1 20843U 23398KQ  26037.47797454  .00000000  00000+0  00000-0 0  9996
2 20843  97.4000 288.0000 0000000   0.0000 189.0000 15.18623352    12
CTC2_L_00519025-03
1 20844U 24643C   26037.47797454  .00000000  00000+0  00000-0 0  9991
2 20844  97.4000 288.0000 0000000   0.0000 234.0000 15.18623352    14
CTC2_L_00519025-04
1 20845U 26763LG  26037.47797454  .00000000  00000+0  00000-0 0  9997
2 20845  97.4000 288.0000 0000000   0.0000 279.0000 15.18623352    14
CTC2_L_00519025-05
1 20846U 24067YQ  26037.47797454  .00000000  00000+0  00000-0 0  9993
2 20846  97.4000 288.0000 0000000   0.0000 324.0000 15.18623352    16
CTC2_L_00519025-06
1 20847U 23346UT  26037.47797454  .00000000  00000+0  00000-0 0  9993
2 20847  97.4000 288.0000 0000000   0.0000   9.0000 15.18623352    17
CTC2_L_00519025-07
1 20848U 23591ZW  26037.47797454  .00000000  00000+0  00000-0 0  9996
2 20848  97.4000 288.0000 0000000   0.0000  54.0000 15.18623352    18
CTC2_L_00519025-08
1 20849U 23614YW  26037.47797454  .00000000  00000+0  00000-0 0  9993
2 20849  97.4000 288.0000 0000000   0.0000  99.0000 15.18623352    18
CTC2_L_00519026-01
1 20850U 24094SD  26037.47797454  .00000000  00000+0  00000-0 0  9998
2 20850  97.4000 300.0000 0000000   0.0000 150.0000 15.18623352    13
CTC2_L_00519026-02
1 20851U 22444MM  26037.47797454  .00000000  00000+0  00000-0 0  9996
2 20851  97.4000 300.0000 0000000   0.0000 195.0000 15.18623352    13
CTC2_L_00519026-03
1 20852U 23554AK  26037.47797454  .00000000  00000+0  00000-0 0  9990
2 20852  97.4000 300.0000 0000000   0.0000 240.0000 15.18623352    15
CTC2_L_00519026-04
1 20853U 24924VS  26037.47797454  .00000000  00000+0  00000-0 0  9993
2 20853  97.4000 300.0000 0000000   0.0000 285.0000 15.18623352    15
CTC2_L_00519026-05
1 20854U 23227YF  26037.47797454  .00000000  00000+0  00000-0 0  9999
2 20854  97.4000 300.0000 0000000   0.0000 330.0000 15.18623352    17
CTC2_L_00519026-06
1 20855U 22389SJ  26037.47797454  .00000000  00000+0  00000-0 0  9998
2 20855  97.4000 300.0000 0000000   0.0000  15.0000 15.18623352    18
CTC2_L_00519026-07
1 20856U 26137KQ  26037.47797454  .00000000  00000+0  00000-0 0  9994
2 20856  97.4000 300.0000 0000000   0.0000  60.0000 15.18623352    19
CTC2_L_00519026-08
1 20857U 23746TC  26037.47797454  .00000000  00000+0  00000-0 0  9998
2 20857  97.4000 300.0000 0000000   0.0000 105.0000 15.18623352    10
CTC2_L_00519027-01
1 20858U 23946PP  26037.47797454  .00000000  00000+0  00000-0 0  9991
2 20858  97.4000 312.0000 0000000   0.0000 156.0000 15.18623352    10
CTC2_L_00519027-02
1 20859U 24348CT  26037.47797454  .00000000  00000+0  00000-0 0  9999
2 20859  97.4000 312.0000 0000000   0.0000 201.0000 15.18623352    12
CTC2_L_00519027-03
1 20860U 23125ND  26037.47797454  .00000000  00000+0  00000-0 0  9993
2 20860  97.4000 312.0000 0000000   0.0000 246.0000 15.18623352    13
CTC2_L_00519027-04
1 20861U 25325XA  26037.47797454  .00000000  00000+0  00000-0 0  9998
2 20861  97.4000 312.0000 0000000   0.0000 291.0000 15.18623352    14
CTC2_L_00519027-05
1 20862U 24945KP  26037.47797454  .00000000  00000+0  00000-0 0  9996
2 20862  97.4000 312.0000 0000000   0.0000 336.0000 15.18623352    15
CTC2_L_00519027-06
1 20863U 26350KW  26037.47797454  .00000000  00000+0  00000-0 0  9999
2 20863  97.4000 312.0000 0000000   0.0000  21.0000 15.18623352    17
CTC2_L_00519027-07
1 20864U 22937PK  26037.47797454  .00000000  00000+0  00000-0 0  9997
2 20864  97.4000 312.0000 0000000   0.0000  66.0000 15.18623352    17
CTC2_L_00519027-08
1 20865U 23953AW  26037.47797454  .00000000  00000+0  00000-0 0  9997
2 20865  97.4000 312.0000 0000000   0.0000 111.0000 15.18623352    19
CTC2_L_00519028-01
1 20866U 25455JA  26037.47797454  .00000000  00000+0  00000-0 0  9997
2 20866  97.4000 324.0000 0000000   0.0000 162.0000 15.18623352    19
CTC2_L_00519028-02
1 20867U 22820PB  26037.47797454  .00000000  00000+0  00000-0 0  9991
2 20867  97.4000 324.0000 0000000   0.0000 207.0000 15.18623352    10
CTC2_L_00519028-03
1 20868U 24630PV  26037.47797454  .00000000  00000+0  00000-0 0  9993
2 20868  97.4000 324.0000 0000000   0.0000 252.0000 15.18623352    11
CTC2_L_00519028-04
1 20869U 23019UP  26037.47797454  .00000000  00000+0  00000-0 0  9994
2 20869  97.4000 324.0000 0000000   0.0000 297.0000 15.18623352    11
CTC2_L_00519028-05
1 20870U 26959SP  26037.47797454  .00000000  00000+0  00000-0 0  9992
2 20870  97.4000 324.0000 0000000   0.0000 342.0000 15.18623352    14
CTC2_L_00519028-06
1 20871U 23809DN  26037.47797454  .00000000  00000+0  00000-0 0  9994
2 20871  97.4000 324.0000 0000000   0.0000  27.0000 15.18623352    15
CTC2_L_00519028-07
1 20872U 22912AI  26037.47797454  .00000000  00000+0  00000-0 0  9999
2 20872  97.4000 324.0000 0000000   0.0000  72.0000 15.18623352    16
CTC2_L_00519028-08
1 20873U 22274KB  26037.47797454  .00000000  00000+0  00000-0 0  9991
2 20873  97.4000 324.0000 0000000   0.0000 117.0000 15.18623352    17
CTC2_L_00519029-01
1 20874U 26857IH  26037.47797454  .00000000  00000+0  00000-0 0  9993
2 20874  97.4000 336.0000 0000000   0.0000 168.0000 15.18623352    17
CTC2_L_00519029-02
1 20875U 23980YJ  26037.47797454  .00000000  00000+0  00000-0 0  9998
2 20875  97.4000 336.0000 0000000   0.0000 213.0000 15.18623352    19
CTC2_L_00519029-03
1 20876U 22495VH  26037.47797454  .00000000  00000+0  00000-0 0  9999
2 20876  97.4000 336.0000 0000000   0.0000 258.0000 15.18623352    19
CTC2_L_00519029-04
1 20877U 25175LD  26037.47797454  .00000000  00000+0  00000-0 0  9998
2 20877  97.4000 336.0000 0000000   0.0000 303.0000 15.18623352    11
CTC2_L_00519029-05
1 20878U 25567IA  26037.47797454  .00000000  00000+0  00000-0 0  9994
2 20878  97.4000 336.0000 0000000   0.0000 348.0000 15.18623352    11
CTC2_L_00519029-06
1 20879U 23688LR  26037.47797454  .00000000  00000+0  00000-0 0  9997
2 20879  97.4000 336.0000 0000000   0.0000  33.0000 15.18623352    13
CTC2_L_00519029-07
1 20880U 26349AO  26037.47797454  .00000000  00000+0  00000-0 0  9996
2 20880  97.4000 336.0000 0000000   0.0000  78.0000 15.18623352    14
CTC2_L_00519029-08
1 20881U 25846RC  26037.47797454  .00000000  00000+0  00000-0 0  9998
2 20881  97.4000 336.0000 0000000   0.0000 123.0000 15.18623352    16
CTC2_L_00519030-01
1 20882U 23192JY  26037.47797454  .00000000  00000+0  00000-0 0  9991
2 20882  97.4000 348.0000 0000000   0.0000 174.0000 15.18623352    16
CTC2_L_00519030-02
1 20883U 26118HQ  26037.47797454  .00000000  00000+0  00000-0 0  9993
2 20883  97.4000 348.0000 0000000   0.0000 219.0000 15.18623352    17
CTC2_L_00519030-03
1 20884U 23505I   26037.47797454  .00000000  00000+0  00000-0 0  9991
2 20884  97.4000 348.0000 0000000   0.0000 264.0000 15.18623352    18
CTC2_L_00519030-04
1 20885U 23396PP  26037.47797454  .00000000  00000+0  00000-0 0  9990
2 20885  97.4000 348.0000 0000000   0.0000 309.0000 15.18623352    19
CTC2_L_00519030-05
1 20886U 22941XI  26037.47797454  .00000000  00000+0  00000-0 0  9996
2 20886  97.4000 348.0000 0000000   0.0000 354.0000 15.18623352    10
CTC2_L_00519030-06
1 20887U 25361XO  26037.47797454  .00000000  00000+0  00000-0 0  9996
2 20887  97.4000 348.0000 0000000   0.0000  39.0000 15.18623352    11
CTC2_L_00519030-07
1 20888U 23014RD  26037.47797454  .00000000  00000+0  00000-0 0  9990
2 20888  97.4000 348.0000 0000000   0.0000  84.0000 15.18623352    12
CTC2_L_00519030-08
1 20889U 25986HZ  26037.47797454  .00000000  00000+0  00000-0 0  9991
2 20889  97.4000 348.0000 0000000   0.0000 129.0000 15.18623352    13
